[{"OBJECT_NAME":"STARLINK-33747","OBJECT_ID":"2025-069M","EPOCH":"2026-03-09T11:25:30.878112","MEAN_MOTION":15.30202464,"ECCENTRICITY":0.00013025,"INCLINATION":53.1586,"RA_OF_ASC_NODE":143.3523,"ARG_OF_PERICENTER":87.4041,"MEAN_ANOMALY":272.7109,"EPHEMERIS_TYPE":0,"CLASSIFICATION_TYPE":"U","NORAD_CAT_ID":63444,"ELEMENT_SET_NO":999,"REV_AT_EPOCH":5332,"BSTAR":0.00089821112,"MEAN_MOTION_DOT":0.0002634,"MEAN_MOTION_DDOT":0},{"OBJECT_NAME":"FREGAT DEB","OBJECT_ID":"2011-037CA","EPOCH":"2026-03-09T14:50:33.280800","MEAN_MOTION":11.1879263,"ECCENTRICITY":0.1892682,"INCLINATION":51.5488,"RA_OF_ASC_NODE":250.7678,"ARG_OF_PERICENTER":39.8106,"MEAN_ANOMALY":332.7245,"EPHEMERIS_TYPE":0,"CLASSIFICATION_TYPE":"U","NORAD_CAT_ID":45840,"ELEMENT_SET_NO":999,"REV_AT_EPOCH":22544,"BSTAR":0.0057315,"MEAN_MOTION_DOT":0.00017987,"MEAN_MOTION_DDOT":0}]
